HYPERFIELD-1A           
1 60562U 24149CY  26068.76488211  .00008569  00000+0  30052-3 0  9998
2 60562  97.3842 149.5066 0003865 313.7844  46.3076 15.29681349 86836
STARLINK-35992          
1 66852U 25281E   26068.14367243  .00025309  00000+0  92608-3 0  9993
2 66852  43.0051 346.4192 0002046 256.9888 103.0736 15.27579202 16107
