[{"OBJECT_NAME":"HYPERFIELD-1A","OBJECT_ID":"2024-149CY","EPOCH":"2026-03-09T18:21:25.814304","MEAN_MOTION":15.29681349,"ECCENTRICITY":0.00038648,"INCLINATION":97.3842,"RA_OF_ASC_NODE":149.5066,"ARG_OF_PERICENTER":313.7844,"MEAN_ANOMALY":46.3076,"EPHEMERIS_TYPE":0,"CLASSIFICATION_TYPE":"U","NORAD_CAT_ID":60562,"ELEMENT_SET_NO":999,"REV_AT_EPOCH":8683,"BSTAR":0.00030052114,"MEAN_MOTION_DOT":8.569e-5,"MEAN_MOTION_DDOT":0},{"OBJECT_NAME":"STARLINK-35992","OBJECT_ID":"2025-281E","EPOCH":"2026-03-09T03:26:53.297952","MEAN_MOTION":15.27579202,"ECCENTRICITY":0.00020462,"INCLINATION":43.0051,"RA_OF_ASC_NODE":346.4192,"ARG_OF_PERICENTER":256.9888,"MEAN_ANOMALY":103.0736,"EPHEMERIS_TYPE":0,"CLASSIFICATION_TYPE":"U","NORAD_CAT_ID":66852,"ELEMENT_SET_NO":999,"REV_AT_EPOCH":1610,"BSTAR":0.00092608498,"MEAN_MOTION_DOT":0.00025309,"MEAN_MOTION_DDOT":0}]
